{
  "type": "FeatureCollection",
  "features": [
    {
      "type": "Feature",
      "properties": {
        "norad_id": 66052,
        "name": "HRC MONOBLOCK CAMERA",
        "group": "stations",
        "lat": -50.11519281432313,
        "lon": 97.47427353471171,
        "alt_km": 412.12761828886596,
        "timestamp": "2025-12-07T05:38:08.702195+00:00",
        "meta_object_name": "HRC MONOBLOCK CAMERA",
        "meta_object_id": "1998-067XR",
        "meta_epoch": "2025-12-06T12:59:24.130464",
        "meta_mean_motion": 15.53538998,
        "meta_eccentricity": 0.00041207,
        "meta_inclination": 51.6285,
        "meta_ra_of_asc_node": 172.3998,
        "meta_arg_of_pericenter": 160.0329,
        "meta_mean_anomaly": 200.0823,
        "meta_ephemeris_type": 0,
        "meta_classification_type": "U",
        "meta_norad_cat_id": 66052,
        "meta_element_set_no": 999,
        "meta_rev_at_epoch": 787,
        "meta_bstar": 0.00076054716,
        "meta_mean_motion_dot": 0.00049118,
        "meta_mean_motion_ddot": 0,
        "tle_line1": "1 66052U 98067XR  25340.54125151  .00049118  00000+0  76055-3 0  9995",
        "tle_line2": "2 66052  51.6285 172.3998 0004120 160.0329 200.0823 15.53538998  7878"
      },
      "geometry": {
        "type": "Point",
        "coordinates": [
          97.47427353471171,
          -50.11519281432313
        ]
      }
    },
    {
      "type": "Feature",
      "properties": {
        "norad_id": 66174,
        "name": "HTV-X1",
        "group": "stations",
        "lat": -50.88897697595622,
        "lon": 66.7792797769375,
        "alt_km": 421.47645594587175,
        "timestamp": "2025-12-07T05:38:08.702205+00:00",
        "meta_object_name": "HTV-X1",
        "meta_object_id": "2025-241A",
        "meta_epoch": "2025-12-06T13:01:49.374912",
        "meta_mean_motion": 15.4936639,
        "meta_eccentricity": 0.00035502,
        "meta_inclination": 51.6299,
        "meta_ra_of_asc_node": 173.16,
        "meta_arg_of_pericenter": 211.9909,
        "meta_mean_anomaly": 148.0864,
        "meta_ephemeris_type": 0,
        "meta_classification_type": "U",
        "meta_norad_cat_id": 66174,
        "meta_element_set_no": 999,
        "meta_rev_at_epoch": 51,
        "meta_bstar": 0.00027332684,
        "meta_mean_motion_dot": 0.00014832,
        "meta_mean_motion_ddot": 0,
        "tle_line1": "1 66174U 25241A   25340.54293258  .00014832  00000+0  27333-3 0  9998",
        "tle_line2": "2 66174  51.6299 173.1600 0003550 211.9909 148.0864 15.49366390   513"
      },
      "geometry": {
        "type": "Point",
        "coordinates": [
          66.7792797769375,
          -50.88897697595622
        ]
      }
    },
    {
      "type": "Feature",
      "properties": {
        "norad_id": 66515,
        "name": "SZ-21 MODULE",
        "group": "stations",
        "lat": 5.3017812557813535,
        "lon": 55.64571807266172,
        "alt_km": 383.4824360470684,
        "timestamp": "2025-12-07T05:38:08.702215+00:00",
        "meta_object_name": "SZ-21 MODULE",
        "meta_object_id": "2025-246C",
        "meta_epoch": "2025-12-06T09:39:14.908896",
        "meta_mean_motion": 15.62039048,
        "meta_eccentricity": 0.00061192,
        "meta_inclination": 41.4777,
        "meta_ra_of_asc_node": 54.6933,
        "meta_arg_of_pericenter": 224.7336,
        "meta_mean_anomaly": 135.3011,
        "meta_ephemeris_type": 0,
        "meta_classification_type": "U",
        "meta_norad_cat_id": 66515,
        "meta_element_set_no": 999,
        "meta_rev_at_epoch": 345,
        "meta_bstar": 0.00043904376,
        "meta_mean_motion_dot": 0.00039389,
        "meta_mean_motion_ddot": 0,
        "tle_line1": "1 66515U 25246C   25340.40225589  .00039389  00000+0  43904-3 0  9995",
        "tle_line2": "2 66515  41.4777  54.6933 0006119 224.7336 135.3011 15.62039048  3453"
      },
      "geometry": {
        "type": "Point",
        "coordinates": [
          55.64571807266172,
          5.3017812557813535
        ]
      }
    },
    {
      "type": "Feature",
      "properties": {
        "norad_id": 66645,
        "name": "SHENZHOU-22",
        "group": "stations",
        "lat": 9.79570000369231,
        "lon": -141.15639388448682,
        "alt_km": 395.7031121164837,
        "timestamp": "2025-12-07T05:38:08.702227+00:00",
        "meta_object_name": "SHENZHOU-22",
        "meta_object_id": "2025-272A",
        "meta_epoch": "2025-12-06T15:05:32.998560",
        "meta_mean_motion": 15.5879906,
        "meta_eccentricity": 0.00095344,
        "meta_inclination": 41.4683,
        "meta_ra_of_asc_node": 53.7961,
        "meta_arg_of_pericenter": 342.8614,
        "meta_mean_anomaly": 17.1901,
        "meta_ephemeris_type": 0,
        "meta_classification_type": "U",
        "meta_norad_cat_id": 66645,
        "meta_element_set_no": 999,
        "meta_rev_at_epoch": 26300,
        "meta_bstar": 0.00036466504,
        "meta_mean_motion_dot": 0.00028802,
        "meta_mean_motion_ddot": 0,
        "tle_line1": "1 66645U 25272A   25340.62885415  .00028802  00000+0  36467-3 0  9996",
        "tle_line2": "2 66645  41.4683  53.7961 0009534 342.8614  17.1901 15.58799060263005"
      },
      "geometry": {
        "type": "Point",
        "coordinates": [
          -141.15639388448682,
          9.79570000369231
        ]
      }
    },
    {
      "type": "Feature",
      "properties": {
        "norad_id": 66646,
        "name": "CZ-2F R/B",
        "group": "stations",
        "lat": -12.802383395391358,
        "lon": 29.17402315262217,
        "alt_km": 180.1135716625722,
        "timestamp": "2025-12-07T05:38:08.702241+00:00",
        "meta_object_name": "CZ-2F R/B",
        "meta_object_id": "2025-272B",
        "meta_epoch": "2025-12-06T20:55:41.021184",
        "meta_mean_motion": 16.34691308,
        "meta_eccentricity": 0.0038093,
        "meta_inclination": 41.4537,
        "meta_ra_of_asc_node": 46.5611,
        "meta_arg_of_pericenter": 222.6714,
        "meta_mean_anomaly": 137.119,
        "meta_ephemeris_type": 0,
        "meta_classification_type": "U",
        "meta_norad_cat_id": 66646,
        "meta_element_set_no": 999,
        "meta_rev_at_epoch": 189,
        "meta_bstar": 0.00045837,
        "meta_mean_motion_dot": 0.04803871,
        "meta_mean_motion_ddot": 7.8554e-06,
        "tle_line1": "1 66646U 25272B   25340.87200256  .04803871  78554-5  45837-3 0  9995",
        "tle_line2": "2 66646  41.4537  46.5611 0038093 222.6714 137.1190 16.34691308  1895"
      },
      "geometry": {
        "type": "Point",
        "coordinates": [
          29.17402315262217,
          -12.802383395391358
        ]
      }
    },
    {
      "type": "Feature",
      "properties": {
        "norad_id": 66664,
        "name": "SOYUZ-MS 28",
        "group": "stations",
        "lat": -50.88897749736619,
        "lon": 66.77928440537349,
        "alt_km": 421.4764560517651,
        "timestamp": "2025-12-07T05:38:08.702251+00:00",
        "meta_object_name": "SOYUZ-MS 28",
        "meta_object_id": "2025-275A",
        "meta_epoch": "2025-12-06T13:01:49.374912",
        "meta_mean_motion": 15.4936639,
        "meta_eccentricity": 0.00035502,
        "meta_inclination": 51.6299,
        "meta_ra_of_asc_node": 173.16,
        "meta_arg_of_pericenter": 211.9909,
        "meta_mean_anomaly": 148.0864,
        "meta_ephemeris_type": 0,
        "meta_classification_type": "U",
        "meta_norad_cat_id": 66664,
        "meta_element_set_no": 999,
        "meta_rev_at_epoch": 128,
        "meta_bstar": 0.00027332684,
        "meta_mean_motion_dot": 0.00014832,
        "meta_mean_motion_ddot": 0,
        "tle_line1": "1 66664U 25275A   25340.54293258  .00014832  00000+0  27333-3 0  9999",
        "tle_line2": "2 66664  51.6299 173.1600 0003550 211.9909 148.0864 15.49366390  1282"
      },
      "geometry": {
        "type": "Point",
        "coordinates": [
          66.77928440537349,
          -50.88897749736619
        ]
      }
    },
    {
      "type": "Feature",
      "properties": {
        "norad_id": 66906,
        "name": "1998-067XS",
        "group": "stations",
        "lat": -51.4611841449729,
        "lon": 85.61635526001334,
        "alt_km": 421.0687539577284,
        "timestamp": "2025-12-07T05:38:08.702261+00:00",
        "meta_object_name": "1998-067XS",
        "meta_object_id": "1998-067XS",
        "meta_epoch": "2025-12-06T14:32:06.723168",
        "meta_mean_motion": 15.50122906,
        "meta_eccentricity": 0.0004191,
        "meta_inclination": 51.6297,
        "meta_ra_of_asc_node": 172.8292,
        "meta_arg_of_pericenter": 176.5725,
        "meta_mean_anomaly": 183.5293,
        "meta_ephemeris_type": 0,
        "meta_classification_type": "U",
        "meta_norad_cat_id": 66906,
        "meta_element_set_no": 999,
        "meta_rev_at_epoch": 66,
        "meta_bstar": 0.00066148009,
        "meta_mean_motion_dot": 0.00037648,
        "meta_mean_motion_ddot": 0,
        "tle_line1": "1 66906U 98067XS  25340.60563337  .00037648  00000+0  66148-3 0  9999",
        "tle_line2": "2 66906  51.6297 172.8292 0004191 176.5725 183.5293 15.50122906   662"
      },
      "geometry": {
        "type": "Point",
        "coordinates": [
          85.61635526001334,
          -51.4611841449729
        ]
      }
    }
  ]
}